GLOBALSTAR M035         
1 25851U 99037A   24272.50544344 -.00000011  00000+0  20001-2 0  9992
2 25851  51.9933 278.5410 0013696 278.6852 204.6663 11.04533319 67340
GLOBALSTAR M032         
1 25852U 99037B   24272.52422054 -.00000068  00000+0 -40816-4 0  9999
2 25852  51.9922 121.7455 0011530  85.9766 274.2352 11.19063573105498
GLOBALSTAR M051         
1 25853U 99037C   24272.82885031 -.00000069  00000+0  70531-4 0  9998
2 25853  51.9806 311.3879 0001488 107.8895 252.2078 11.42200603102542
GLOBALSTAR M030         
1 25854U 99037D   24272.57556847 -.00000060  00000+0  32679-3 0  9992
2 25854  51.9853 134.7369 0003254 308.0095  52.0428 11.55102005119810
GLOBALSTAR M048         
1 25872U 99041A   24272.89721455 -.00000061  00000+0  23570-3 0  9992
2 25872  51.9349 236.1516 0013469  90.4488 295.9854 11.33849725 95220
GLOBALSTAR M026         
1 25873U 99041B   24272.59594338 -.00000134  00000+0 -25720-2 0  9998
2 25873  52.0037  39.0417 0001717 146.2624 226.6979 11.06830964119728
GLOBALSTAR M043         
1 25874U 99041C   24272.50363601 -.00000119  00000+0 -15022-2 0  9994
2 25874  51.9432 334.3026 0012949 223.6204 240.7783 11.25684038 93402
GLOBALSTAR M028         
1 25875U 99041D   24272.23988607 -.00000112  00000+0 -77294-4 0  9998
2 25875  51.9615 254.1364 0063123 222.5621 137.0337 12.50565206157409
